{
  "type": "FeatureCollection",
  "features": [
    {
      "type": "Feature",
      "properties": {
        "norad_id": 63632,
        "name": "SHENZHOU-20 (SZ-20)",
        "group": "stations",
        "lat": 28.434296192357085,
        "lon": 179.11596381430203,
        "alt_km": 390.01912028330116,
        "timestamp": "2025-12-09T09:46:46.439013+00:00",
        "meta_object_name": "SHENZHOU-20 (SZ-20)",
        "meta_object_id": "2025-082A",
        "meta_epoch": "2025-12-08T14:45:28.776096",
        "meta_mean_motion": 15.58905517,
        "meta_eccentricity": 0.00091311,
        "meta_inclination": 41.4682,
        "meta_ra_of_asc_node": 41.7451,
        "meta_arg_of_pericenter": 357.4459,
        "meta_mean_anomaly": 2.6332,
        "meta_ephemeris_type": 0,
        "meta_classification_type": "U",
        "meta_norad_cat_id": 63632,
        "meta_element_set_no": 999,
        "meta_rev_at_epoch": 25530,
        "meta_bstar": 0.0003572809,
        "meta_mean_motion_dot": 0.0002832,
        "meta_mean_motion_ddot": 0,
        "tle_line1": "1 63632U 25082A   25342.61491639  .00028320  00000+0  35728-3 0  9994",
        "tle_line2": "2 63632  41.4682  41.7451 0009131 357.4459   2.6332 15.58905517255307"
      },
      "geometry": {
        "type": "Point",
        "coordinates": [
          179.11596381430203,
          28.434296192357085
        ]
      }
    },
    {
      "type": "Feature",
      "properties": {
        "norad_id": 64751,
        "name": "PROGRESS-MS 31",
        "group": "stations",
        "lat": 23.998145129026437,
        "lon": -41.675781773653554,
        "alt_km": 414.93765045531563,
        "timestamp": "2025-12-09T09:46:46.439024+00:00",
        "meta_object_name": "PROGRESS-MS 31",
        "meta_object_id": "2025-146A",
        "meta_epoch": "2025-12-08T20:45:25.501536",
        "meta_mean_motion": 15.49428834,
        "meta_eccentricity": 0.00033811,
        "meta_inclination": 51.6308,
        "meta_ra_of_asc_node": 161.6653,
        "meta_arg_of_pericenter": 221.9847,
        "meta_mean_anomaly": 138.0883,
        "meta_ephemeris_type": 0,
        "meta_classification_type": "U",
        "meta_norad_cat_id": 64751,
        "meta_element_set_no": 999,
        "meta_rev_at_epoch": 675,
        "meta_bstar": 0.00022803662,
        "meta_mean_motion_dot": 0.00012323,
        "meta_mean_motion_ddot": 0,
        "tle_line1": "1 64751U 25146A   25342.86487849  .00012323  00000+0  22804-3 0  9990",
        "tle_line2": "2 64751  51.6308 161.6653 0003381 221.9847 138.0883 15.49428834  6751"
      },
      "geometry": {
        "type": "Point",
        "coordinates": [
          -41.675781773653554,
          23.998145129026437
        ]
      }
    },
    {
      "type": "Feature",
      "properties": {
        "norad_id": 64786,
        "name": "TIANZHOU-9",
        "group": "stations",
        "lat": 28.43429547823671,
        "lon": 179.11596513660507,
        "alt_km": 390.019120510372,
        "timestamp": "2025-12-09T09:46:46.439034+00:00",
        "meta_object_name": "TIANZHOU-9",
        "meta_object_id": "2025-149A",
        "meta_epoch": "2025-12-08T14:45:28.776096",
        "meta_mean_motion": 15.58905517,
        "meta_eccentricity": 0.00091311,
        "meta_inclination": 41.4682,
        "meta_ra_of_asc_node": 41.7451,
        "meta_arg_of_pericenter": 357.4459,
        "meta_mean_anomaly": 2.6332,
        "meta_ephemeris_type": 0,
        "meta_classification_type": "U",
        "meta_norad_cat_id": 64786,
        "meta_element_set_no": 999,
        "meta_rev_at_epoch": 25530,
        "meta_bstar": 0.0003572809,
        "meta_mean_motion_dot": 0.0002832,
        "meta_mean_motion_ddot": 0,
        "tle_line1": "1 64786U 25149A   25342.61491639  .00028320  00000+0  35728-3 0  9999",
        "tle_line2": "2 64786  41.4682  41.7451 0009131 357.4459   2.6332 15.58905517255308"
      },
      "geometry": {
        "type": "Point",
        "coordinates": [
          179.11596513660507,
          28.43429547823671
        ]
      }
    },
    {
      "type": "Feature",
      "properties": {
        "norad_id": 65077,
        "name": "CREW DRAGON 11",
        "group": "stations",
        "lat": 23.998144132873893,
        "lon": -41.675780764251826,
        "alt_km": 414.93765056326447,
        "timestamp": "2025-12-09T09:46:46.439045+00:00",
        "meta_object_name": "CREW DRAGON 11",
        "meta_object_id": "2025-166A",
        "meta_epoch": "2025-12-08T20:45:25.501536",
        "meta_mean_motion": 15.49428834,
        "meta_eccentricity": 0.00033811,
        "meta_inclination": 51.6308,
        "meta_ra_of_asc_node": 161.6653,
        "meta_arg_of_pericenter": 221.9847,
        "meta_mean_anomaly": 138.0883,
        "meta_ephemeris_type": 0,
        "meta_classification_type": "U",
        "meta_norad_cat_id": 65077,
        "meta_element_set_no": 999,
        "meta_rev_at_epoch": 214,
        "meta_bstar": 0.00022803662,
        "meta_mean_motion_dot": 0.00012323,
        "meta_mean_motion_ddot": 0,
        "tle_line1": "1 65077U 25166A   25342.86487849  .00012323  00000+0  22804-3 0  9994",
        "tle_line2": "2 65077  51.6308 161.6653 0003381 221.9847 138.0883 15.49428834  2142"
      },
      "geometry": {
        "type": "Point",
        "coordinates": [
          -41.675780764251826,
          23.998144132873893
        ]
      }
    },
    {
      "type": "Feature",
      "properties": {
        "norad_id": 65304,
        "name": "DRAGON CRS-33",
        "group": "stations",
        "lat": 23.998143563643488,
        "lon": -41.67578018745044,
        "alt_km": 414.9376506249537,
        "timestamp": "2025-12-09T09:46:46.439057+00:00",
        "meta_object_name": "DRAGON CRS-33",
        "meta_object_id": "2025-186A",
        "meta_epoch": "2025-12-08T20:45:25.501536",
        "meta_mean_motion": 15.49428834,
        "meta_eccentricity": 0.00033811,
        "meta_inclination": 51.6308,
        "meta_ra_of_asc_node": 161.6653,
        "meta_arg_of_pericenter": 221.9847,
        "meta_mean_anomaly": 138.0883,
        "meta_ephemeris_type": 0,
        "meta_classification_type": "U",
        "meta_norad_cat_id": 65304,
        "meta_element_set_no": 999,
        "meta_rev_at_epoch": 11,
        "meta_bstar": 0.00022803662,
        "meta_mean_motion_dot": 0.00012323,
        "meta_mean_motion_ddot": 0,
        "tle_line1": "1 65304U 25186A   25342.86487849  .00012323  00000+0  22804-3 0  9999",
        "tle_line2": "2 65304  51.6308 161.6653 0003381 221.9847 138.0883 15.49428834   110"
      },
      "geometry": {
        "type": "Point",
        "coordinates": [
          -41.67578018745044,
          23.998143563643488
        ]
      }
    },
    {
      "type": "Feature",
      "properties": {
        "norad_id": 65586,
        "name": "PROGRESS-MS 32",
        "group": "stations",
        "lat": 23.998143041849165,
        "lon": -41.67577965871609,
        "alt_km": 414.93765068149787,
        "timestamp": "2025-12-09T09:46:46.439068+00:00",
        "meta_object_name": "PROGRESS-MS 32",
        "meta_object_id": "2025-204A",
        "meta_epoch": "2025-12-08T20:45:25.501536",
        "meta_mean_motion": 15.49428834,
        "meta_eccentricity": 0.00033811,
        "meta_inclination": 51.6308,
        "meta_ra_of_asc_node": 161.6653,
        "meta_arg_of_pericenter": 221.9847,
        "meta_mean_anomaly": 138.0883,
        "meta_ephemeris_type": 0,
        "meta_classification_type": "U",
        "meta_norad_cat_id": 65586,
        "meta_element_set_no": 999,
        "meta_rev_at_epoch": 27,
        "meta_bstar": 0.00022803662,
        "meta_mean_motion_dot": 0.00012323,
        "meta_mean_motion_ddot": 0,
        "tle_line1": "1 65586U 25204A   25342.86487849  .00012323  00000+0  22804-3 0  9992",
        "tle_line2": "2 65586  51.6308 161.6653 0003381 221.9847 138.0883 15.49428834   279"
      },
      "geometry": {
        "type": "Point",
        "coordinates": [
          -41.67577965871609,
          23.998143041849165
        ]
      }
    },
    {
      "type": "Feature",
      "properties": {
        "norad_id": 65616,
        "name": "CYGNUS NG-23",
        "group": "stations",
        "lat": 23.99814252005485,
        "lon": -41.67577912998173,
        "alt_km": 414.9376507380457,
        "timestamp": "2025-12-09T09:46:46.439079+00:00",
        "meta_object_name": "CYGNUS NG-23",
        "meta_object_id": "2025-208A",
        "meta_epoch": "2025-12-08T20:45:25.501536",
        "meta_mean_motion": 15.49428834,
        "meta_eccentricity": 0.00033811,
        "meta_inclination": 51.6308,
        "meta_ra_of_asc_node": 161.6653,
        "meta_arg_of_pericenter": 221.9847,
        "meta_mean_anomaly": 138.0883,
        "meta_ephemeris_type": 0,
        "meta_classification_type": "U",
        "meta_norad_cat_id": 65616,
        "meta_element_set_no": 999,
        "meta_rev_at_epoch": 22,
        "meta_bstar": 0.00022803662,
        "meta_mean_motion_dot": 0.00012323,
        "meta_mean_motion_ddot": 0,
        "tle_line1": "1 65616U 25208A   25342.86487849  .00012323  00000+0  22804-3 0  9990",
        "tle_line2": "2 65616  51.6308 161.6653 0003381 221.9847 138.0883 15.49428834   228"
      },
      "geometry": {
        "type": "Point",
        "coordinates": [
          -41.67577912998173,
          23.99814252005485
        ]
      }
    }
  ]
}